start=new Date('2021-12-10T00:00:00.000Z').valueOf();
sats=[{"PERIOD":"95.592","EPOCH":"2021-12-09T16:37:57.150912","EPHEMERIS_TYPE":"0","ARG_OF_PERICENTER":"103.6141","ECCENTRICITY":"0.00013710","TLE_LINE2":"2 44934  53.0547  89.3148 0001371 103.6141 256.5000 15.06403199106352","CENTER_NAME":"EARTH","REV_AT_EPOCH":"10635","TLE_LINE1":"1 44934U 20001W   21343.69302258  .00001731  00000-0  13509-3 0  9998","SITE":"AFETR","DECAY_DATE":null,"TIME_SYSTEM":"UTC","LAUNCH_DATE":"2020-01-07","OBJECT_ID":"2020-001W","MEAN_MOTION_DOT":"0.00001731","CLASSIFICATION_TYPE":"U","BSTAR":"0.00013509000000","ELEMENT_SET_NO":"999","GP_ID":"191397453","REF_FRAME":"TEME","SEMIMAJOR_AXIS":"6925.339","MEAN_ELEMENT_THEORY":"SGP4","OBJECT_TYPE":"PAYLOAD","MEAN_ANOMALY":"256.5000","OBJECT_NAME":"STARLINK-1071","INCLINATION":"53.0547","APOAPSIS":"548.153","PERIAPSIS":"546.254","COUNTRY_CODE":"US","MEAN_MOTION":"15.06403199","RCS_SIZE":"LARGE","FILE":"3236488","NORAD_CAT_ID":"44934","RA_OF_ASC_NODE":"89.3148","MEAN_MOTION_DDOT":"0.0000000000000"},{"INCLINATION":"53.0545","OBJECT_NAME":"STARLINK-1079","PERIAPSIS":"546.367","APOAPSIS":"548.060","MEAN_ANOMALY":"273.3169","OBJECT_TYPE":"PAYLOAD","SEMIMAJOR_AXIS":"6925.348","MEAN_ELEMENT_THEORY":"SGP4","REF_FRAME":"TEME","MEAN_MOTION_DDOT":"0.0000000000000","RA_OF_ASC_NODE":"89.1216","FILE":"3236488","NORAD_CAT_ID":"44937","RCS_SIZE":"LARGE","MEAN_MOTION":"15.06400038","COUNTRY_CODE":"US","TLE_LINE1":"1 44937U 20001Z   21343.73725137  .00001144  00000-0  95644-4 0  9990","SITE":"AFETR","REV_AT_EPOCH":"10636","TLE_LINE2":"2 44937  53.0545  89.1216 0001222  86.7960 273.3169 15.06400038106365","CENTER_NAME":"EARTH","DECAY_DATE":null,"ARG_OF_PERICENTER":"86.7960","ECCENTRICITY":"0.00012220","EPHEMERIS_TYPE":"0","PERIOD":"95.592","EPOCH":"2021-12-09T17:41:38.518368","BSTAR":"0.00009564400000","CLASSIFICATION_TYPE":"U","GP_ID":"191397204","ELEMENT_SET_NO":"999","MEAN_MOTION_DOT":"0.00001144","TIME_SYSTEM":"UTC","LAUNCH_DATE":"2020-01-07","OBJECT_ID":"2020-001Z"},{"BSTAR":"0.00009186800000","CLASSIFICATION_TYPE":"U","GP_ID":"191395952","ELEMENT_SET_NO":"999","MEAN_MOTION_DOT":"0.00001087","TIME_SYSTEM":"UTC","LAUNCH_DATE":"2020-01-07","OBJECT_ID":"2020-001AA","TLE_LINE1":"1 44938U 20001AA  21343.57137802  .00001087  00000-0  91868-4 0  9999","SITE":"AFETR","TLE_LINE2":"2 44938  53.0549  89.8594 0001082  94.7364 265.3749 15.06405184106336","CENTER_NAME":"EARTH","REV_AT_EPOCH":"10633","DECAY_DATE":null,"ARG_OF_PERICENTER":"94.7364","ECCENTRICITY":"0.00010820","EPHEMERIS_TYPE":"0","EPOCH":"2021-12-09T13:42:47.060928","PERIOD":"95.592","MEAN_MOTION_DDOT":"0.0000000000000","RA_OF_ASC_NODE":"89.8594","NORAD_CAT_ID":"44938","FILE":"3236488","MEAN_MOTION":"15.06405184","RCS_SIZE":"LARGE","COUNTRY_CODE":"US","INCLINATION":"53.0549","OBJECT_NAME":"STARLINK-1082","APOAPSIS":"547.947","PERIAPSIS":"546.448","OBJECT_TYPE":"PAYLOAD","MEAN_ANOMALY":"265.3749","SEMIMAJOR_AXIS":"6925.333","MEAN_ELEMENT_THEORY":"SGP4","REF_FRAME":"TEME"},{"EPHEMERIS_TYPE":"0","EPOCH":"2021-12-09T18:40:02.339904","PERIOD":"95.592","TLE_LINE2":"2 44939  53.0543  88.9390 0001335  90.5228 269.5914 15.06394372106368","REV_AT_EPOCH":"10636","CENTER_NAME":"EARTH","SITE":"AFETR","TLE_LINE1":"1 44939U 20001AB  21343.77780486 -.00000454  00000-0 -11574-4 0  9999","DECAY_DATE":null,"ARG_OF_PERICENTER":"90.5228","ECCENTRICITY":"0.00013350","MEAN_MOTION_DOT":"-0.00000454","TIME_SYSTEM":"UTC","OBJECT_ID":"2020-001AB","LAUNCH_DATE":"2020-01-07","CLASSIFICATION_TYPE":"U","BSTAR":"-0.00001157400000","ELEMENT_SET_NO":"999","GP_ID":"191396702","SEMIMAJOR_AXIS":"6925.366","MEAN_ELEMENT_THEORY":"SGP4","REF_FRAME":"TEME","INCLINATION":"53.0543","OBJECT_NAME":"STARLINK-1083","PERIAPSIS":"546.306","APOAPSIS":"548.155","OBJECT_TYPE":"PAYLOAD","MEAN_ANOMALY":"269.5914","RCS_SIZE":"LARGE","MEAN_MOTION":"15.06394372","COUNTRY_CODE":"US","RA_OF_ASC_NODE":"88.9390","MEAN_MOTION_DDOT":"0.0000000000000","NORAD_CAT_ID":"44939","FILE":"3236488"},{"TLE_LINE1":"1 44940U 20001AC  21343.72250746  .00001009  00000-0  86614-4 0  9999","SITE":"AFETR","CENTER_NAME":"EARTH","TLE_LINE2":"2 44940  53.0549  89.1797 0001168  88.1335 271.9787 15.06397991106350","REV_AT_EPOCH":"10635","DECAY_DATE":null,"ARG_OF_PERICENTER":"88.1335","ECCENTRICITY":"0.00011680","EPHEMERIS_TYPE":"0","PERIOD":"95.592","EPOCH":"2021-12-09T17:20:24.644544","BSTAR":"0.00008661400000","CLASSIFICATION_TYPE":"U","GP_ID":"191396954","ELEMENT_SET_NO":"999","MEAN_MOTION_DOT":"0.00001009","TIME_SYSTEM":"UTC","OBJECT_ID":"2020-001AC","LAUNCH_DATE":"2020-01-07","OBJECT_NAME":"STARLINK-1091","INCLINATION":"53.0549","PERIAPSIS":"546.411","APOAPSIS":"548.029","OBJECT_TYPE":"PAYLOAD","MEAN_ANOMALY":"271.9787","SEMIMAJOR_AXIS":"6925.355","MEAN_ELEMENT_THEORY":"SGP4","REF_FRAME":"TEME","MEAN_MOTION_DDOT":"0.0000000000000","RA_OF_ASC_NODE":"89.1797","NORAD_CAT_ID":"44940","FILE":"3236488","MEAN_MOTION":"15.06397991","RCS_SIZE":"LARGE","COUNTRY_CODE":"US"},{"MEAN_MOTION_DDOT":"0.0000000000000","RA_OF_ASC_NODE":"89.3796","FILE":"3236488","NORAD_CAT_ID":"44941","MEAN_MOTION":"15.06399806","RCS_SIZE":"LARGE","COUNTRY_CODE":"US","APOAPSIS":"548.141","PERIAPSIS":"546.287","INCLINATION":"53.0550","OBJECT_NAME":"STARLINK-1094","OBJECT_TYPE":"PAYLOAD","MEAN_ANOMALY":"277.7265","MEAN_ELEMENT_THEORY":"SGP4","SEMIMAJOR_AXIS":"6925.349","REF_FRAME":"TEME","GP_ID":"191397704","ELEMENT_SET_NO":"999","BSTAR":"0.00008727600000","CLASSIFICATION_TYPE":"U","MEAN_MOTION_DOT":"0.00001019","LAUNCH_DATE":"2020-01-07","OBJECT_ID":"2020-001AD","TIME_SYSTEM":"UTC","DECAY_DATE":null,"SITE":"AFETR","TLE_LINE1":"1 44941U 20001AD  21343.67827602  .00001019  00000-0  87276-4 0  9991","TLE_LINE2":"2 44941  53.0550  89.3796 0001339  82.3876 277.7265 15.06399806106352","REV_AT_EPOCH":"10635","CENTER_NAME":"EARTH","ECCENTRICITY":"0.00013390","ARG_OF_PERICENTER":"82.3876","EPHEMERIS_TYPE":"0","EPOCH":"2021-12-09T16:16:43.048128","PERIOD":"95.592"},{"COUNTRY_CODE":"US","RCS_SIZE":"LARGE","MEAN_MOTION":"15.06394599","FILE":"3236488","NORAD_CAT_ID":"44942","MEAN_MOTION_DDOT":"0.0000000000000","RA_OF_ASC_NODE":"89.4503","REF_FRAME":"TEME","MEAN_ELEMENT_THEORY":"SGP4","SEMIMAJOR_AXIS":"6925.365","OBJECT_TYPE":"PAYLOAD","MEAN_ANOMALY":"276.2587","APOAPSIS":"548.135","PERIAPSIS":"546.326","INCLINATION":"53.0541","OBJECT_NAME":"STARLINK-1096","OBJECT_ID":"2020-001AE","LAUNCH_DATE":"2020-01-07","TIME_SYSTEM":"UTC","MEAN_MOTION_DOT":"-0.00000629","GP_ID":"191396452","ELEMENT_SET_NO":"999","BSTAR":"-0.00002332700000","CLASSIFICATION_TYPE":"U","EPOCH":"2021-12-09T15:55:29.541504","PERIOD":"95.592","EPHEMERIS_TYPE":"0","ECCENTRICITY":"0.00013060","ARG_OF_PERICENTER":"83.8551","DECAY_DATE":null,"SITE":"AFETR","TLE_LINE1":"1 44942U 20001AE  21343.66353636 -.00000629  00000-0 -23327-4 0  9997","CENTER_NAME":"EARTH","TLE_LINE2":"2 44942  53.0541  89.4503 0001306  83.8551 276.2587 15.06394599106355","REV_AT_EPOCH":"10635"},{"MEAN_MOTION_DOT":"0.00001164","LAUNCH_DATE":"2020-01-07","OBJECT_ID":"2020-001AF","TIME_SYSTEM":"UTC","GP_ID":"191396203","ELEMENT_SET_NO":"999","BSTAR":"0.00009704700000","CLASSIFICATION_TYPE":"U","EPHEMERIS_TYPE":"0","PERIOD":"95.592","EPOCH":"2021-12-09T16:59:11.365152","DECAY_DATE":null,"SITE":"AFETR","TLE_LINE1":"1 44943U 20001AF  21343.70777043  .00001164  00000-0  97047-4 0  9998","REV_AT_EPOCH":"10635","TLE_LINE2":"2 44943  53.0547  89.2530 0001237  89.5217 270.5914 15.06395610106351","CENTER_NAME":"EARTH","ECCENTRICITY":"0.00012370","ARG_OF_PERICENTER":"89.5217","RCS_SIZE":"LARGE","MEAN_MOTION":"15.06395610","COUNTRY_CODE":"US","MEAN_MOTION_DDOT":"0.0000000000000","RA_OF_ASC_NODE":"89.2530","FILE":"3236488","NORAD_CAT_ID":"44943","MEAN_ELEMENT_THEORY":"SGP4","SEMIMAJOR_AXIS":"6925.362","REF_FRAME":"TEME","PERIAPSIS":"546.370","APOAPSIS":"548.084","OBJECT_NAME":"STARLINK-1100","INCLINATION":"53.0547","MEAN_ANOMALY":"270.5914","OBJECT_TYPE":"PAYLOAD"},{"EPOCH":"2021-12-09T16:32:39.107328","PERIOD":"95.593","EPHEMERIS_TYPE":"0","ARG_OF_PERICENTER":"83.0708","ECCENTRICITY":"0.00013480","TLE_LINE2":"2 44944  53.0548  89.3301 0001348  83.0708 277.0435 15.06391410106351","REV_AT_EPOCH":"10635","CENTER_NAME":"EARTH","TLE_LINE1":"1 44944U 20001AG  21343.68934152  .00001026  00000-0  87774-4 0  9995","SITE":"AFETR","DECAY_DATE":null,"TIME_SYSTEM":"UTC","LAUNCH_DATE":"2020-01-07","OBJECT_ID":"2020-001AG","MEAN_MOTION_DOT":"0.00001026","CLASSIFICATION_TYPE":"U","BSTAR":"0.00008777400000","ELEMENT_SET_NO":"999","GP_ID":"191397454","REF_FRAME":"TEME","SEMIMAJOR_AXIS":"6925.375","MEAN_ELEMENT_THEORY":"SGP4","OBJECT_TYPE":"PAYLOAD","MEAN_ANOMALY":"277.0435","OBJECT_NAME":"STARLINK-1108","INCLINATION":"53.0548","APOAPSIS":"548.173","PERIAPSIS":"546.306","COUNTRY_CODE":"US","RCS_SIZE":"LARGE","MEAN_MOTION":"15.06391410","NORAD_CAT_ID":"44944","FILE":"3236488","RA_OF_ASC_NODE":"89.3301","MEAN_MOTION_DDOT":"0.0000000000000"},{"EPOCH":"2021-12-09T17:15:06.746976","PERIOD":"95.593","EPHEMERIS_TYPE":"0","ARG_OF_PERICENTER":"89.9258","ECCENTRICITY":"0.00011500","SITE":"AFETR","TLE_LINE1":"1 44945U 20001AH  21343.71882809 -.00000606  00000-0 -21818-4 0  9993","TLE_LINE2":"2 44945  53.0546  89.1948 0001150  89.9258 270.1862 15.06392810106354","REV_AT_EPOCH":"10635","CENTER_NAME":"EARTH","DECAY_DATE":null,"TIME_SYSTEM":"UTC","LAUNCH_DATE":"2020-01-07","OBJECT_ID":"2020-001AH","MEAN_MOTION_DOT":"-0.00000606","BSTAR":"-0.00002181800000","CLASSIFICATION_TYPE":"U","GP_ID":"191397205","ELEMENT_SET_NO":"999","REF_FRAME":"TEME","SEMIMAJOR_AXIS":"6925.371","MEAN_ELEMENT_THEORY":"SGP4","OBJECT_TYPE":"PAYLOAD","MEAN_ANOMALY":"270.1862","OBJECT_NAME":"STARLINK-1109","INCLINATION":"53.0546","APOAPSIS":"548.032","PERIAPSIS":"546.439","COUNTRY_CODE":"US","MEAN_MOTION":"15.06392810","RCS_SIZE":"LARGE","NORAD_CAT_ID":"44945","FILE":"3236488","MEAN_MOTION_DDOT":"0.0000000000000","RA_OF_ASC_NODE":"89.1948"}];
